[{"OBJECT_NAME":"SMDC ONE 2.4","OBJECT_ID":"2013-072H","EPOCH":"2026-03-09T13:26:07.283328","MEAN_MOTION":15.15767863,"ECCENTRICITY":0.0137633,"INCLINATION":120.4883,"RA_OF_ASC_NODE":328.0945,"ARG_OF_PERICENTER":267.6479,"MEAN_ANOMALY":90.8828,"EPHEMERIS_TYPE":0,"CLASSIFICATION_TYPE":"U","NORAD_CAT_ID":39469,"ELEMENT_SET_NO":999,"REV_AT_EPOCH":10271,"BSTAR":0.00065974,"MEAN_MOTION_DOT":0.00015821,"MEAN_MOTION_DDOT":0},{"OBJECT_NAME":"ZHUHAI-1 03D","OBJECT_ID":"2019-060E","EPOCH":"2026-03-09T22:12:44.409600","MEAN_MOTION":15.43807554,"ECCENTRICITY":0.00080361,"INCLINATION":97.5253,"RA_OF_ASC_NODE":214.8478,"ARG_OF_PERICENTER":305.9727,"MEAN_ANOMALY":54.0775,"EPHEMERIS_TYPE":0,"CLASSIFICATION_TYPE":"U","NORAD_CAT_ID":44538,"ELEMENT_SET_NO":999,"REV_AT_EPOCH":36073,"BSTAR":0.00071898588,"MEAN_MOTION_DOT":0.00032597,"MEAN_MOTION_DDOT":0}]
