SMDC ONE 2.4            
1 39469U 13072H   26068.55980652  .00015821  00000+0  65974-3 0  9996
2 39469 120.4883 328.0945 0137633 267.6479  90.8828 15.15767863102719
ZHUHAI-1 03D            
1 44538U 19060E   26068.92551400  .00032597  00000+0  71899-3 0  9990
2 44538  97.5253 214.8478 0008036 305.9727  54.0775 15.43807554360730
